     2              NAVIGATION DATA                         RINEX VERSION / TYPE
                    COGI                                    PGM / RUN BY / DATE
                                                            END OF HEADER
 9 20 04 13 07 15  0.0 1.270240172744D-04 1.818989403546D-12 2.520000000000D+04
   -1.117060107422D+04-1.299924850464D+00-1.862645149231D-09 0.000000000000D+00
    1.863878662109D+04 1.281368255615D+00 2.793967723846D-09-2.000000000000D+00
    1.331490917969D+04-2.892534255981D+00 9.313225746155D-10 0.000000000000D+00
 9 20 04 13 07 45  0.0 1.270268112421D-04 1.818989403546D-12 2.700000000000D+04
   -1.287540039063D+04-6.028833389282D-01-9.313225746155D-10 0.000000000000D+00
    2.060791015625D+04 8.647108078003D-01 2.793967723846D-09-2.000000000000D+00
    7.659502441406D+03-3.350381851196D+00 1.862645149231D-09 0.000000000000D+00
 9 20 04 13 08 15  0.0 1.270296052098D-04 1.818989403546D-12 2.880000000000D+04
   -1.340288769531D+04-8.291244506836D-03-9.313225746155D-10 0.000000000000D+00
    2.161664794922D+04 2.242250442505D-01 1.862645149231D-09-2.000000000000D+00
    1.409787597656D+03-3.548492431641D+00 1.862645149231D-09 0.000000000000D+00
 9 20 04 13 08 45  0.0 1.270323991776D-04 1.818989403546D-12 3.060000000000D+04
   -1.301859082031D+04 3.986024856567D-01-0.000000000000D+00 0.000000000000D+00
    2.132682861328D+04-5.624980926514D-01 1.862645149231D-09-2.000000000000D+00
   -4.949347656250D+03-3.471128463745D+00 2.793967723846D-09 0.000000000000D+00
 9 20 04 13 14 45  0.0 1.270761713386D-04 2.728484105319D-12 5.268000000000D+04
   -1.901322753906D+04 1.110210418701D+00-9.313225746155D-10 0.000000000000D+00
   -1.421947607422D+04 6.597318649292D-01-0.000000000000D+00-2.000000000000D+00
    9.426707519531D+03 3.231641769409D+00-2.793967723846D-09 0.000000000000D+00
 9 20 04 13 15 15  0.0 1.270808279514D-04 2.728484105319D-12 5.400000000000D+04
   -1.630030517578D+04 1.891615867615D+00-0.000000000000D+00 0.000000000000D+00
   -1.294135986328D+04 7.189817428589D-01 0.000000000000D+00-2.000000000000D+00
    1.480589404297D+04 2.706556320190D+00-2.793967723846D-09 0.000000000000D+00
 9 20 04 13 15 45  0.0 1.270854845643D-04 2.728484105319D-12 5.580000000000D+04
   -1.228107080078D+04 2.544173240662D+00 0.000000000000D+00 0.000000000000D+00
   -1.177143505859D+04 5.457983016968D-01 0.000000000000D+00-2.000000000000D+00
    1.904475244141D+04 1.972745895386D+00-2.793967723846D-09 0.000000000000D+00
 9 20 04 13 16 15  0.0 1.270901411772D-04 2.728484105319D-12 5.760000000000D+04
   -7.275202636719D+03 2.974625587463D+00 1.862645149231D-09 0.000000000000D+00
   -1.108245068359D+04 1.970577239990D-01 0.000000000000D+00-2.000000000000D+00
    2.181598144531D+04 1.086337089539D+00-1.862645149231D-09 0.000000000000D+00
 9 20 04 13 16 45  0.0 1.270938664675D-04 1.818989403546D-12 5.940000000000D+04
   -1.743147949219D+03 3.121964454651D+00 1.862645149231D-09 0.000000000000D+00
   -1.111498583984D+04-2.394075393677D-01 0.000000000000D+00-2.000000000000D+00
    2.290462597656D+04 1.152563095093D-01-1.862645149231D-09 0.000000000000D+00
 9 20 04 13 17 15  0.0 1.270975917578D-04 1.818989403546D-12 6.120000000000D+04
    3.781773437500D+03 2.967350959778D+00 2.793967723846D-09 0.000000000000D+00
   -1.193468066406D+04-6.598749160767D-01-0.000000000000D+00-2.000000000000D+00
    2.222487451172D+04-8.658351898193D-01-9.313225746155D-10 0.000000000000D+00
 9 20 04 13 17 45  0.0 1.271013170481D-04 1.818989403546D-12 6.300000000000D+04
    8.773182617188D+03 2.537246704102D+00 2.793967723846D-09 0.000000000000D+00
   -1.341944140625D+04-9.625158309937D-01-9.313225746155D-10-2.000000000000D+00
    1.982716796875D+04-1.781170845032D+00 0.000000000000D+00 0.000000000000D+00
 9 20 04 13 18 15  0.0 1.271059736609D-04 1.818989403546D-12 6.480000000000D+04
    1.279047314453D+04 1.899188041687D+00 2.793967723846D-09 0.000000000000D+00
   -1.527895068359D+04-1.065000534058D+00-9.313225746155D-10-2.000000000000D+00
    1.589495751953D+04-2.559691429138D+00 0.000000000000D+00 0.000000000000D+00
 9 20 04 13 18 45  0.0 1.271087676287D-04 1.818989403546D-12 6.660000000000D+04
    1.554378417969D+04 1.150817871094D+00 1.862645149231D-09 0.000000000000D+00
   -1.710346044922D+04-9.189729690552D-01-9.313225746155D-10-2.000000000000D+00
    1.073113769531D+04-3.140625000000D+00 9.313225746155D-10 0.000000000000D+00
10 20 04 13 03 45  0.0-5.729869008064D-05-0.000000000000D+00 1.392000000000D+04
    2.508158447266D+04 1.198024749756D-01 2.793967723846D-09 0.000000000000D+00
    4.388248046875D+03-1.395893096924D-01-0.000000000000D+00-7.000000000000D+00
   -6.831499023438D+02 3.574625015259D+00-2.793967723846D-09 0.000000000000D+00
10 20 04 13 04 15  0.0-5.730055272579D-05-9.094947017729D-13 1.440000000000D+04
    2.449262695313D+04-7.734203338623D-01 1.862645149231D-09 0.000000000000D+00
    4.048496582031D+03-1.967926025391D-01-0.000000000000D+00-7.000000000000D+00
    5.694185546875D+03 3.465074539185D+00-2.793967723846D-09 0.000000000000D+00
10 20 04 13 04 45  0.0-5.730241537094D-05-9.094947017729D-13 1.620000000000D+04
    2.233564355469D+04-1.603001594543D+00 0.000000000000D+00 0.000000000000D+00
    3.824369140625D+03-1.455211639404D-02-0.000000000000D+00-7.000000000000D+00
    1.162920458984D+04 3.086382865906D+00-2.793967723846D-09 0.000000000000D+00
10 20 04 13 05 15  0.0-5.730334669352D-05-0.000000000000D+00 1.800000000000D+04
    1.882570507813D+04-2.260353088379D+00-0.000000000000D+00 0.000000000000D+00
    4.115220703125D+03 3.649454116821D-01-0.000000000000D+00-7.000000000000D+00
    1.666108203125D+04 2.468189239502D+00-2.793967723846D-09 0.000000000000D+00
10 20 04 13 05 45  0.0-5.730520933867D-05-0.000000000000D+00 1.980000000000D+04
    1.435160791016D+04-2.663665771484D+00-9.313225746155D-10 0.000000000000D+00
    5.209405273438D+03 8.623685836792D-01 0.000000000000D+00-7.000000000000D+00
    2.039973925781D+04 1.658920288086D+00-1.862645149231D-09 0.000000000000D+00
10 20 04 13 06 15  0.0-5.730614066124D-05-0.000000000000D+00 2.160000000000D+04
    9.415068847656D+03-2.770946502686D+00-1.862645149231D-09 0.000000000000D+00
    7.228955078125D+03 1.374942779541D+00 9.313225746155D-10-7.000000000000D+00
    2.255630664063D+04 7.218332290649D-01-1.862645149231D-09 0.000000000000D+00
10 20 04 13 06 45  0.0-5.730707198381D-05-0.000000000000D+00 2.340000000000D+04
    4.552237304688D+03-2.586357116699D+00-1.862645149231D-09 0.000000000000D+00
    1.010288964844D+04 1.794106483459D+00 1.862645149231D-09-7.000000000000D+00
    2.296535986328D+04-2.700881958008D-01-9.313225746155D-10 0.000000000000D+00
10 20 04 13 07 15  0.0-5.730800330639D-05-0.000000000000D+00 2.520000000000D+04
    2.506577148438D+02-2.158872604370D+00-1.862645149231D-09 0.000000000000D+00
    1.357365136719D+04 2.024121284485D+00 1.862645149231D-09-7.000000000000D+00
    2.159727685547D+04-1.239933013916D+00-0.000000000000D+00 0.000000000000D+00
10 20 04 13 07 45  0.0-5.730707198381D-05-0.000000000000D+00 2.700000000000D+04
   -3.124581054688D+03-1.573579788208D+00-1.862645149231D-09 0.000000000000D+00
    1.723550488281D+04 1.998485565186D+00 2.793967723846D-09-7.000000000000D+00
    1.855991357422D+04-2.112851142883D+00 0.000000000000D+00 0.000000000000D+00
10 20 04 13 08 15  0.0-5.730800330639D-05-0.000000000000D+00 2.880000000000D+04
   -5.383467773438D+03-9.371385574341D-01-9.313225746155D-10 0.000000000000D+00
    2.059843652344D+04 1.691459655762D+00 2.793967723846D-09-7.000000000000D+00
    1.408966162109D+04-2.821786880493D+00 9.313225746155D-10 0.000000000000D+00
10 20 04 13 08 45  0.0-5.730800330639D-05-0.000000000000D+00 3.060000000000D+04
   -6.534089843750D+03-3.598823547363D-01-9.313225746155D-10 0.000000000000D+00
    2.316692480469D+04 1.122833251953D+00 2.793967723846D-09-7.000000000000D+00
    8.532735351563D+03-3.312533378601D+00 9.313225746155D-10 0.000000000000D+00
10 20 04 13 09 15  0.0-5.730800330639D-05 0.000000000000D+00 3.240000000000D+04
   -6.772594726563D+03 6.248855590820D-02-0.000000000000D+00 0.000000000000D+00
    2.452055126953D+04 3.551921844482D-01 2.793967723846D-09-7.000000000000D+00
    2.318254882813D+03-3.547751426697D+00 1.862645149231D-09 0.000000000000D+00
10 20 04 13 09 45  0.0-5.730800330639D-05 0.000000000000D+00 3.420000000000D+04
   -6.442104980469D+03 2.646293640137D-01 0.000000000000D+00 0.000000000000D+00
    2.438323193359D+04-5.158119201660D-01 1.862645149231D-09-7.000000000000D+00
   -4.074785156250D+03-3.509697914124D+00 2.793967723846D-09 0.000000000000D+00
10 20 04 13 15 15  0.0-5.731359124184D-05-0.000000000000D+00 5.508000000000D+04
   -2.379780761719D+04 2.639350891113D-01-1.862645149231D-09 0.000000000000D+00
   -8.762083007813D+03 2.503232955933D-01-0.000000000000D+00-7.000000000000D+00
    2.373770507813D+03 3.557118415833D+00-2.793967723846D-09 0.000000000000D+00
10 20 04 13 15 45  0.0-5.731545388699D-05-9.094947017729D-13 5.580000000000D+04
   -2.253426123047D+04 1.137389183044D+00-9.313225746155D-10 0.000000000000D+00
   -8.181287597656D+03 3.533849716187D-01-0.000000000000D+00-7.000000000000D+00
    8.601274414063D+03 3.317188262939D+00-2.793967723846D-09 0.000000000000D+00
10 20 04 13 16 15  0.0-5.731731653214D-05-0.000000000000D+00 5.760000000000D+04
   -1.974799023438D+04 1.936543464661D+00-0.000000000000D+00 0.000000000000D+00
   -7.636262207031D+03 2.140197753906D-01 0.000000000000D+00-7.000000000000D+00
    1.416069140625D+04 2.819679260254D+00-2.793967723846D-09 0.000000000000D+00
10 20 04 13 16 45  0.0-5.731917917728D-05-0.000000000000D+00 5.940000000000D+04
   -1.567228710938D+04 2.553993225098D+00 9.313225746155D-10 0.000000000000D+00
   -7.531714843750D+03-1.255865097046D-01 0.000000000000D+00-7.000000000000D+00
    1.862061425781D+04 2.103568077087D+00-2.793967723846D-09 0.000000000000D+00
